COSMOS 2058             
1 20465U 90010A   26175.08414112  .00002870  00000+0  16520-3 0  9992
2 20465  82.4691 302.5536 0008705 332.8893  27.1882 15.12056135958312
SL-14 R/B               
1 20466U 90010B   26175.24937379  .00000343  00000+0  38566-4 0  9994
2 20466  82.5017 167.3123 0018570 311.8919  48.0711 14.83650089944281
SL-14 R/B               
1 20511U 90018B   26175.09975152  .00000321  00000+0  37162-4 0  9994
2 20511  82.5215 123.6468 0017673 100.7908 259.5296 14.82220058938340
HST                     
1 20580U 90037B   26174.98863599  .00006014  00000+0  18861-3 0  9998
2 20580  28.4728  34.0889 0001454 220.4821 139.5667 15.30816101789617
SL-16 R/B               
1 20625U 90046B   26175.15866636 -.00000155  00000+0 -55327-4 0  9994
2 20625  71.0002  74.3073 0012840 150.8586 209.3256 14.15027021863455
COSMOS 2084             
1 20663U 90055A   26175.16558061  .00001776  00000+0  13447-3 0  9991
2 20663  62.7900 332.2716 0005886 290.9998  69.0473 15.06141352952351
SL-6 R/B(2)             
1 20666U 90055D   26174.76448928  .00001011  00000+0  86273-4 0  9999
2 20666  62.7817 252.9947 0041736   6.0508 354.1087 15.04019797954145
SL-8 R/B                
1 20775U 90078B   26174.96639387  .00026116  00000+0  73768-3 0  9995
2 20775  82.9017 155.5188 0349123  15.6073 345.5584 14.92618738825139
SL-8 R/B                
1 21088U 91006B   26175.19160294  .00000051  00000+0  35670-4 0  9998
2 21088  82.9426  90.8233 0023848  96.0432  14.4995 13.77506494778736
OKEAN-3                 
1 21397U 91039A   26175.18464515  .00002145  00000+0  14761-3 0  9992
2 21397  82.5161 233.5965 0013310 331.9929  28.0580 15.05355525881055
COSMOS 2151             
1 21422U 91042A   26175.26209483  .00001481  00000+0  11541-3 0  9990
2 21422  82.4964 340.8522 0013608  62.7531 297.5078 15.00455131879177
SL-14 R/B               
1 21423U 91042B   26175.10773316  .00000292  00000+0  33961-4 0  9995
2 21423  82.4933 120.4059 0015476 249.7697 110.1853 14.81906116868830
ERS-1                   
1 21574U 91050A   26175.04605662  .00000195  00000+0  77089-4 0  9993
2 21574  98.7795 195.9117 0030790 245.8347 113.9620 14.39520425831033
ARIANE 40 R/B           
1 21610U 91050F   26175.12196732  .00000205  00000+0  73785-4 0  9997
2 21610  98.1871 223.2687 0004441 106.3739 253.7941 14.42960437834341
INTERCOSMOS 25          
1 21819U 91086A   26175.21000766  .00000908  00000+0  18072-3 0  9995
2 21819  82.6045 245.5601 1483961 247.2286  96.5591 12.12206939509592
SL-8 R/B                
1 21876U 92008B   26175.31454376  .00000158  00000+0  14623-3 0  9999
2 21876  82.9259 188.4882 0034287 194.4251 175.9940 13.75978802724086
SL-8 R/B                
1 21938U 92020B   26175.19232683  .00000052  00000+0  38266-4 0  9996
2 21938  82.9304  74.6543 0029239   3.3869 106.3293 13.75549563715773
USA 81                  
1 21949U 92023A   26175.19061480  .00000119  00000+0  36560-4 0  9995
2 21949  85.0072  69.9654 0002708  78.8325 281.3172 14.32399761110032
COSMOS 2219             
1 22219U 92076A   26175.19363052  .00000348  00000+0  20701-3 0  9997
2 22219  71.0591 155.4244 0016937  32.4121 327.8038 14.14104069733436
SL-16 R/B               
1 22220U 92076B   26175.18235053  .00000077  00000+0  62122-4 0  9990
2 22220  71.0012 324.0445 0014890 289.4436 243.6227 14.16875545736919
COSMOS 2221             
1 22236U 92080A   26175.09272866  .00001206  00000+0  10360-3 0  9996
2 22236  82.5029 177.1484 0013899 187.9685 172.1319 14.96548055796709
SL-16 R/B               
1 22285U 92093B   26175.16806090  .00000052  00000+0  51097-4 0  9995
2 22285  71.0201 140.7362 0003604 175.1386 184.9773 14.15459947728228
COSMOS 2228             
1 22286U 92094A   26175.23692393  .00001747  00000+0  14690-3 0  9993
2 22286  82.5179 135.2902 0016309 306.9920  52.9809 14.97608401792005
SL-16 R/B               
1 22566U 93016B   26175.21953043 -.00000071  00000+0 -11988-4 0  9998
2 22566  71.0087 351.4360 0009720 173.6621 186.4626 14.15315937717245
COSMOS 2242             
1 22626U 93024A   26175.06590016  .00001422  00000+0  12142-3 0  9995
2 22626  82.5180 164.9616 0014791 311.7272  48.2685 14.96921156796304
SL-16 R/B               
1 22803U 93059B   26175.19504387 -.00000096  00000+0 -23976-4 0  9996
2 22803  70.9889 146.5253 0015500  42.2310 318.0004 14.17247072694625
ARIANE 40 R/B           
1 22830U 93061H   26175.18820711  .00000127  00000+0  62405-4 0  9993
2 22830  98.4816 241.8998 0010021 334.8929  25.1767 14.32910315709357
COSMOS 2278             
1 23087U 94023A   26175.10701148 -.00000103  00000+0 -28930-4 0  9992
2 23087  71.0553 312.4466 0010515 235.5099 124.5032 14.14398682659850
SL-16 R/B               
1 23088U 94023B   26175.17638587 -.00000030  00000+0  92113-5 0  9999
2 23088  70.9988 207.2535 0002263 181.8048 178.3067 14.15027594661150
SL-16 R/B               
1 23343U 94074B   26175.04438499  .00000317  00000+0  48951-4 0  9992
2 23343  97.6988 201.4797 0005433 225.5781 188.3621 14.79507182702977
