OBJECT_NAME,OBJECT_ID,EPOCH,MEAN_MOTION,ECCENTRICITY,INCLINATION,RA_OF_ASC_NODE,ARG_OF_PERICENTER,MEAN_ANOMALY,EPHEMERIS_TYPE,CLASSIFICATION_TYPE,NORAD_CAT_ID,ELEMENT_SET_NO,REV_AT_EPOCH,BSTAR,MEAN_MOTION_DOT,MEAN_MOTION_DDOT
COSMOS 2058,1990-010A,2026-06-24T02:01:09.792768,15.12056135,.0008705,82.4691,302.5536,332.8893,27.1882,0,U,20465,999,95831,.16519783E-3,.287E-4,0
SL-14 R/B,1990-010B,2026-06-24T05:59:05.895456,14.83650089,.00185701,82.5017,167.3123,311.8919,48.0711,0,U,20466,999,94428,.38565862E-4,.343E-5,0
SL-14 R/B,1990-018B,2026-06-24T02:23:38.531328,14.82220058,.00176739,82.5215,123.6468,100.7908,259.5296,0,U,20511,999,93834,.37161646E-4,.321E-5,0
HST,1990-037B,2026-06-23T23:43:38.149536,15.30816101,.00014546,28.4728,34.0889,220.4821,139.5667,0,U,20580,999,78961,.188613E-3,.6014E-4,0
SL-16 R/B,1990-046B,2026-06-24T03:48:28.773504,14.15027021,.00128408,71.0002,74.3073,150.8586,209.3256,0,U,20625,999,86345,-.55327165E-4,-.155E-5,0
COSMOS 2084,1990-055A,2026-06-24T03:58:26.164704,15.06141352,.00058861,62.7900,332.2716,290.9998,69.0473,0,U,20663,999,95235,.13446897E-3,.1776E-4,0
SL-6 R/B(2),1990-055D,2026-06-23T18:20:51.873792,15.04019797,.00417364,62.7817,252.9947,6.0508,354.1087,0,U,20666,999,95414,.86272833E-4,.1011E-4,0
SL-8 R/B,1990-078B,2026-06-23T23:11:36.430368,14.92618738,.03491233,82.9017,155.5188,15.6073,345.5584,0,U,20775,999,82513,.73767787E-3,.26116E-3,0
SL-8 R/B,1991-006B,2026-06-24T04:35:54.494016,13.77506494,.00238489,82.9426,90.8233,96.0432,14.4995,0,U,21088,999,77873,.35670106E-4,.51E-6,0
OKEAN-3,1991-039A,2026-06-24T04:25:53.340960,15.05355525,.00133108,82.5161,233.5965,331.9929,28.0580,0,U,21397,999,88105,.14760599E-3,.2145E-4,0
COSMOS 2151,1991-042A,2026-06-24T06:17:24.993312,15.00455131,.0013608,82.4964,340.8522,62.7531,297.5078,0,U,21422,999,87917,.11541439E-3,.1481E-4,0
SL-14 R/B,1991-042B,2026-06-24T02:35:08.145024,14.81906116,.00154767,82.4933,120.4059,249.7697,110.1853,0,U,21423,999,86883,.3396057E-4,.292E-5,0
ERS-1,1991-050A,2026-06-24T01:06:19.291968,14.39520425,.00307902,98.7795,195.9117,245.8347,113.9620,0,U,21574,999,83103,.7708925E-4,.195E-5,0
ARIANE 40 R/B,1991-050F,2026-06-24T02:55:37.976448,14.42960437,.00044412,98.1871,223.2687,106.3739,253.7941,0,U,21610,999,83434,.73784757E-4,.205E-5,0
INTERCOSMOS 25,1991-086A,2026-06-24T05:02:24.661824,12.12206939,.14839617,82.6045,245.5601,247.2286,96.5591,0,U,21819,999,50959,.18071817E-3,.908E-5,0
SL-8 R/B,1992-008B,2026-06-24T07:32:56.580864,13.75978802,.00342877,82.9259,188.4882,194.4251,175.9940,0,U,21876,999,72408,.14623182E-3,.158E-5,0
SL-8 R/B,1992-020B,2026-06-24T04:36:57.038112,13.75549563,.00292397,82.9304,74.6543,3.3869,106.3293,0,U,21938,999,71577,.38266223E-4,.52E-6,0
USA 81,1992-023A,2026-06-24T04:34:29.118720,14.32399761,.0002708,85.0072,69.9654,78.8325,281.3172,0,U,21949,999,11003,.36560344E-4,.119E-5,0
COSMOS 2219,1992-076A,2026-06-24T04:38:49.676928,14.14104069,.00169377,71.0591,155.4244,32.4121,327.8038,0,U,22219,999,73343,.20700996E-3,.348E-5,0
SL-16 R/B,1992-076B,2026-06-24T04:22:35.085792,14.16875545,.00148903,71.0012,324.0445,289.4436,243.6227,0,U,22220,999,73691,.62121727E-4,.77E-6,0
COSMOS 2221,1992-080A,2026-06-24T02:13:31.756224,14.96548055,.0013899,82.5029,177.1484,187.9685,172.1319,0,U,22236,999,79670,.10359602E-3,.1206E-4,0
SL-16 R/B,1992-093B,2026-06-24T04:02:00.461760,14.15459947,.0003604,71.0201,140.7362,175.1386,184.9773,0,U,22285,999,72822,.51097384E-4,.52E-6,0
COSMOS 2228,1992-094A,2026-06-24T05:41:10.227552,14.97608401,.00163099,82.5179,135.2902,306.9920,52.9809,0,U,22286,999,79200,.1468978E-3,.1747E-4,0
SL-16 R/B,1993-016B,2026-06-24T05:16:07.429152,14.15315937,.00097205,71.0087,351.4360,173.6621,186.4626,0,U,22566,999,71724,-.11988338E-4,-.71E-6,0
COSMOS 2242,1993-024A,2026-06-24T01:34:53.773824,14.96921156,.00147913,82.5180,164.9616,311.7272,48.2685,0,U,22626,999,79630,.1214161E-3,.1422E-4,0
SL-16 R/B,1993-059B,2026-06-24T04:40:51.790368,14.17247072,.00155003,70.9889,146.5253,42.2310,318.0004,0,U,22803,999,69462,-.23976159E-4,-.96E-6,0
ARIANE 40 R/B,1993-061H,2026-06-24T04:31:01.094304,14.32910315,.00100213,98.4816,241.8998,334.8929,25.1767,0,U,22830,999,70935,.62404851E-4,.127E-5,0
COSMOS 2278,1994-023A,2026-06-24T02:34:05.791872,14.14398682,.00105154,71.0553,312.4466,235.5099,124.5032,0,U,23087,999,65985,-.28929884E-4,-.103E-5,0
SL-16 R/B,1994-023B,2026-06-24T04:13:59.739168,14.15027594,.00022634,70.9988,207.2535,181.8048,178.3067,0,U,23088,999,66115,.9211268E-5,-.3E-6,0
SL-16 R/B,1994-074B,2026-06-24T01:03:54.863136,14.79507182,.0005433,97.6988,201.4797,225.5781,188.3621,0,U,23343,999,70297,.48950753E-4,.317E-5,0
